start=new Date('2022-08-20T00:00:00.000Z').valueOf();
sats=[{"BSTAR":"-0.05559700000000","TLE_LINE1":"1 52707U 22053BD  22231.91667824 -.01059755  00000-0 -55597-1 0  9992","RCS_SIZE":"LARGE","NORAD_CAT_ID":"52707","TIME_SYSTEM":"UTC","TLE_LINE2":"2 52707  53.2174 200.1873 0001765  36.8395   0.7799 15.18405205  1306","MEAN_ELEMENT_THEORY":"SGP4","ECCENTRICITY":"0.00017650","COUNTRY_CODE":"US","DECAY_DATE":null,"APOAPSIS":"511.878","PERIOD":"94.836","OBJECT_TYPE":"PAYLOAD","OBJECT_ID":"2022-053BD","RA_OF_ASC_NODE":"200.1873","EPHEMERIS_TYPE":"0","INCLINATION":"53.2174","MEAN_MOTION":"15.18405205","ELEMENT_SET_NO":"999","REF_FRAME":"TEME","MEAN_ANOMALY":"0.7799","GP_ID":"210550464","REV_AT_EPOCH":"130","OBJECT_NAME":"STARLINK-4007","LAUNCH_DATE":"2022-05-18","PERIAPSIS":"509.446","ARG_OF_PERICENTER":"36.8395","EPOCH":"2022-08-19T22:00:00.999936","FILE":"3540705","SITE":"AFETR","SEMIMAJOR_AXIS":"6888.797","MEAN_MOTION_DDOT":"0.0000000000000","MEAN_MOTION_DOT":"-0.01059755","CENTER_NAME":"EARTH","CLASSIFICATION_TYPE":"U"},{"PERIAPSIS":"501.086","ARG_OF_PERICENTER":"45.1696","EPOCH":"2022-08-19T22:00:00.999936","SITE":"AFETR","FILE":"3540705","MEAN_MOTION":"15.21168069","ELEMENT_SET_NO":"999","REF_FRAME":"TEME","MEAN_ANOMALY":"124.6827","GP_ID":"210549618","OBJECT_NAME":"STARLINK-3962","REV_AT_EPOCH":"130","LAUNCH_DATE":"2022-05-18","MEAN_MOTION_DOT":"-0.01062935","CENTER_NAME":"EARTH","CLASSIFICATION_TYPE":"U","SEMIMAJOR_AXIS":"6880.453","MEAN_MOTION_DDOT":"0.0000000000000","ECCENTRICITY":"0.00017910","COUNTRY_CODE":"US","TLE_LINE1":"1 52708U 22053BE  22231.91667824 -.01062935  00000-0 -51444-1 0  9994","BSTAR":"-0.05144400000000","NORAD_CAT_ID":"52708","RCS_SIZE":"LARGE","TIME_SYSTEM":"UTC","TLE_LINE2":"2 52708  53.2178 200.2185 0001791  45.1696 124.6827 15.21168069  1300","MEAN_ELEMENT_THEORY":"SGP4","OBJECT_ID":"2022-053BE","EPHEMERIS_TYPE":"0","RA_OF_ASC_NODE":"200.2185","INCLINATION":"53.2178","DECAY_DATE":null,"APOAPSIS":"503.550","PERIOD":"94.664","OBJECT_TYPE":"PAYLOAD"},{"RA_OF_ASC_NODE":"100.0493","EPHEMERIS_TYPE":"0","OBJECT_ID":"2022-062A","INCLINATION":"53.2143","PERIOD":"95.439","APOAPSIS":"540.923","DECAY_DATE":null,"OBJECT_TYPE":"PAYLOAD","COUNTRY_CODE":"US","ECCENTRICITY":"0.00015790","RCS_SIZE":"LARGE","NORAD_CAT_ID":"52830","TLE_LINE1":"1 52830U 22062A   22231.91667824 -.00007136  00000-0 -43100-3 0  9993","BSTAR":"-0.00043100000000","TLE_LINE2":"2 52830  53.2143 100.0493 0001579  67.7994 257.4798 15.08812084  1302","MEAN_ELEMENT_THEORY":"SGP4","TIME_SYSTEM":"UTC","MEAN_MOTION_DOT":"-0.00007136","CLASSIFICATION_TYPE":"U","CENTER_NAME":"EARTH","MEAN_MOTION_DDOT":"0.0000000000000","SEMIMAJOR_AXIS":"6917.966","ARG_OF_PERICENTER":"67.7994","PERIAPSIS":"538.738","FILE":"3540705","SITE":"AFETR","EPOCH":"2022-08-19T22:00:00.999936","ELEMENT_SET_NO":"999","REF_FRAME":"TEME","MEAN_MOTION":"15.08812084","LAUNCH_DATE":"2022-06-17","REV_AT_EPOCH":"130","OBJECT_NAME":"STARLINK-4091","MEAN_ANOMALY":"257.4798","GP_ID":"210550476"},{"INCLINATION":"53.2143","OBJECT_ID":"2022-062B","RA_OF_ASC_NODE":"100.0528","EPHEMERIS_TYPE":"0","OBJECT_TYPE":"PAYLOAD","APOAPSIS":"540.808","DECAY_DATE":null,"PERIOD":"95.438","COUNTRY_CODE":"US","ECCENTRICITY":"0.00014950","TLE_LINE2":"2 52831  53.2143 100.0528 0001495  76.7433 188.4469 15.08830735  1308","MEAN_ELEMENT_THEORY":"SGP4","TIME_SYSTEM":"UTC","TLE_LINE1":"1 52831U 22062B   22231.91667824 -.00003488  00000-0 -20118-3 0  9994","BSTAR":"-0.00020118000000","RCS_SIZE":"LARGE","NORAD_CAT_ID":"52831","CLASSIFICATION_TYPE":"U","CENTER_NAME":"EARTH","MEAN_MOTION_DOT":"-0.00003488","SEMIMAJOR_AXIS":"6917.909","MEAN_MOTION_DDOT":"0.0000000000000","EPOCH":"2022-08-19T22:00:00.999936","FILE":"3540705","SITE":"AFETR","PERIAPSIS":"538.739","ARG_OF_PERICENTER":"76.7433","GP_ID":"210549630","MEAN_ANOMALY":"188.4469","LAUNCH_DATE":"2022-06-17","REV_AT_EPOCH":"130","OBJECT_NAME":"STARLINK-4089","MEAN_MOTION":"15.08830735","ELEMENT_SET_NO":"999","REF_FRAME":"TEME"},{"OBJECT_ID":"2022-062C","EPHEMERIS_TYPE":"0","RA_OF_ASC_NODE":"100.0514","INCLINATION":"53.2145","DECAY_DATE":null,"APOAPSIS":"540.962","PERIOD":"95.439","OBJECT_TYPE":"PAYLOAD","ECCENTRICITY":"0.00016570","COUNTRY_CODE":"US","BSTAR":"-0.00035741000000","TLE_LINE1":"1 52832U 22062C   22231.91667824 -.00005968  00000-0 -35741-3 0  9998","RCS_SIZE":"MEDIUM","NORAD_CAT_ID":"52832","TIME_SYSTEM":"UTC","MEAN_ELEMENT_THEORY":"SGP4","TLE_LINE2":"2 52832  53.2145 100.0514 0001657  49.8070 235.4602 15.08816943  1301","MEAN_MOTION_DOT":"-0.00005968","CENTER_NAME":"EARTH","CLASSIFICATION_TYPE":"U","SEMIMAJOR_AXIS":"6917.951","MEAN_MOTION_DDOT":"0.0000000000000","PERIAPSIS":"538.670","ARG_OF_PERICENTER":"49.8070","EPOCH":"2022-08-19T22:00:00.999936","FILE":"3540705","SITE":"AFETR","MEAN_MOTION":"15.08816943","REF_FRAME":"TEME","ELEMENT_SET_NO":"999","MEAN_ANOMALY":"235.4602","GP_ID":"210549771","OBJECT_NAME":"STARLINK-4083","REV_AT_EPOCH":"130","LAUNCH_DATE":"2022-06-17"},{"INCLINATION":"53.2136","OBJECT_ID":"2022-062D","EPHEMERIS_TYPE":"0","RA_OF_ASC_NODE":"100.0495","OBJECT_TYPE":"PAYLOAD","DECAY_DATE":null,"APOAPSIS":"540.975","PERIOD":"95.439","ECCENTRICITY":"0.00016570","COUNTRY_CODE":"US","TIME_SYSTEM":"UTC","MEAN_ELEMENT_THEORY":"SGP4","TLE_LINE2":"2 52833  53.2136 100.0495 0001657  63.0673 242.2302 15.08812907  1306","BSTAR":"-0.00031333000000","TLE_LINE1":"1 52833U 22062D   22231.91667824 -.00005268  00000-0 -31333-3 0  9995","RCS_SIZE":"LARGE","NORAD_CAT_ID":"52833","CENTER_NAME":"EARTH","CLASSIFICATION_TYPE":"U","MEAN_MOTION_DOT":"-0.00005268","SEMIMAJOR_AXIS":"6917.963","MEAN_MOTION_DDOT":"0.0000000000000","EPOCH":"2022-08-19T22:00:00.999936","FILE":"3540705","SITE":"AFETR","PERIAPSIS":"538.682","ARG_OF_PERICENTER":"63.0673","MEAN_ANOMALY":"242.2302","GP_ID":"210549903","OBJECT_NAME":"STARLINK-4086","REV_AT_EPOCH":"130","LAUNCH_DATE":"2022-06-17","MEAN_MOTION":"15.08812907","REF_FRAME":"TEME","ELEMENT_SET_NO":"999"},{"ELEMENT_SET_NO":"999","REF_FRAME":"TEME","MEAN_MOTION":"15.08819176","LAUNCH_DATE":"2022-06-17","OBJECT_NAME":"STARLINK-4108","REV_AT_EPOCH":"130","MEAN_ANOMALY":"282.2524","GP_ID":"210550328","ARG_OF_PERICENTER":"63.0134","PERIAPSIS":"538.744","FILE":"3540705","SITE":"AFETR","EPOCH":"2022-08-19T22:00:00.999936","MEAN_MOTION_DDOT":"0.0000000000000","SEMIMAJOR_AXIS":"6917.944","MEAN_MOTION_DOT":"-0.00006838","CLASSIFICATION_TYPE":"U","CENTER_NAME":"EARTH","RCS_SIZE":"LARGE","NORAD_CAT_ID":"52834","BSTAR":"-0.00041215000000","TLE_LINE1":"1 52834U 22062E   22231.91667824 -.00006838  00000-0 -41215-3 0  9990","TLE_LINE2":"2 52834  53.2151 100.0511 0001540  63.0134 282.2524 15.08819176  1301","MEAN_ELEMENT_THEORY":"SGP4","TIME_SYSTEM":"UTC","COUNTRY_CODE":"US","ECCENTRICITY":"0.00015400","PERIOD":"95.439","APOAPSIS":"540.874","DECAY_DATE":null,"OBJECT_TYPE":"PAYLOAD","EPHEMERIS_TYPE":"0","RA_OF_ASC_NODE":"100.0511","OBJECT_ID":"2022-062E","INCLINATION":"53.2151"},{"COUNTRY_CODE":"US","ECCENTRICITY":"0.00017520","MEAN_ELEMENT_THEORY":"SGP4","TLE_LINE2":"2 52835  53.2160 100.0516 0001752  60.8132 304.4680 15.08813275  1309","TIME_SYSTEM":"UTC","TLE_LINE1":"1 52835U 22062F   22231.91667824 -.00009002  00000-0 -54862-3 0  9999","BSTAR":"-0.00054862000000","RCS_SIZE":"LARGE","NORAD_CAT_ID":"52835","INCLINATION":"53.2160","OBJECT_ID":"2022-062F","EPHEMERIS_TYPE":"0","RA_OF_ASC_NODE":"100.0516","OBJECT_TYPE":"PAYLOAD","APOAPSIS":"541.039","DECAY_DATE":null,"PERIOD":"95.439","EPOCH":"2022-08-19T22:00:00.999936","SITE":"AFETR","FILE":"3540705","PERIAPSIS":"538.615","ARG_OF_PERICENTER":"60.8132","MEAN_ANOMALY":"304.4680","GP_ID":"210550044","LAUNCH_DATE":"2022-06-17","OBJECT_NAME":"STARLINK-4080","REV_AT_EPOCH":"130","MEAN_MOTION":"15.08813275","ELEMENT_SET_NO":"999","REF_FRAME":"TEME","CLASSIFICATION_TYPE":"U","CENTER_NAME":"EARTH","MEAN_MOTION_DOT":"-0.00009002","SEMIMAJOR_AXIS":"6917.962","MEAN_MOTION_DDOT":"0.0000000000000"},{"CLASSIFICATION_TYPE":"U","CENTER_NAME":"EARTH","MEAN_MOTION_DOT":"-0.00010532","MEAN_MOTION_DDOT":"0.0000000000000","SEMIMAJOR_AXIS":"6917.908","FILE":"3540705","SITE":"AFETR","EPOCH":"2022-08-19T22:00:00.999936","ARG_OF_PERICENTER":"55.0905","PERIAPSIS":"538.576","LAUNCH_DATE":"2022-06-17","REV_AT_EPOCH":"130","OBJECT_NAME":"STARLINK-4043","MEAN_ANOMALY":"330.1815","GP_ID":"210550186","ELEMENT_SET_NO":"999","REF_FRAME":"TEME","MEAN_MOTION":"15.08830952","INCLINATION":"53.2164","EPHEMERIS_TYPE":"0","RA_OF_ASC_NODE":"100.0517","OBJECT_ID":"2022-062G","OBJECT_TYPE":"PAYLOAD","PERIOD":"95.438","APOAPSIS":"540.971","DECAY_DATE":null,"COUNTRY_CODE":"US","ECCENTRICITY":"0.00017310","TLE_LINE2":"2 52836  53.2164 100.0517 0001731  55.0905 330.1815 15.08830952  1303","MEAN_ELEMENT_THEORY":"SGP4","TIME_SYSTEM":"UTC","RCS_SIZE":"LARGE","NORAD_CAT_ID":"52836","BSTAR":"-0.00064472000000","TLE_LINE1":"1 52836U 22062G   22231.91667824 -.00010532  00000-0 -64472-3 0  9998"},{"TLE_LINE2":"2 52837  53.2192 100.0522 0001936  46.4980  18.7415 15.08828472  1304","MEAN_ELEMENT_THEORY":"SGP4","TIME_SYSTEM":"UTC","TLE_LINE1":"1 52837U 22062H   22231.91667824 -.00010671  00000-0 -65356-3 0  9995","BSTAR":"-0.00065356000000","RCS_SIZE":"LARGE","NORAD_CAT_ID":"52837","COUNTRY_CODE":"US","ECCENTRICITY":"0.00019360","OBJECT_TYPE":"PAYLOAD","APOAPSIS":"541.120","DECAY_DATE":null,"PERIOD":"95.438","INCLINATION":"53.2192","OBJECT_ID":"2022-062H","EPHEMERIS_TYPE":"0","RA_OF_ASC_NODE":"100.0522","MEAN_ANOMALY":"18.7415","GP_ID":"210549490","LAUNCH_DATE":"2022-06-17","OBJECT_NAME":"STARLINK-4036","REV_AT_EPOCH":"130","MEAN_MOTION":"15.08828472","ELEMENT_SET_NO":"999","REF_FRAME":"TEME","EPOCH":"2022-08-19T22:00:00.999936","FILE":"3540705","SITE":"AFETR","PERIAPSIS":"538.441","ARG_OF_PERICENTER":"46.4980","SEMIMAJOR_AXIS":"6917.916","MEAN_MOTION_DDOT":"0.0000000000000","CLASSIFICATION_TYPE":"U","CENTER_NAME":"EARTH","MEAN_MOTION_DOT":"-0.00010671"}];
